{
    "links": {
        "self": "http://www.neowsapp.com/rest/v1/neo/54016406?api_key=iIulBulltgU6a56xZRHN4H3l9WmuAYTsLGpBGhQ2"
    },
    "id": "54016406",
    "neo_reference_id": "54016406",
    "name": "(2020 FK6)",
    "designation": "2020 FK6",
    "nasa_jpl_url": "http://ssd.jpl.nasa.gov/sbdb.cgi?sstr=54016406",
    "absolute_magnitude_h": 28.046,
    "estimated_diameter": {
        "kilometers": {
            "estimated_diameter_min": 0.0065366462,
            "estimated_diameter_max": 0.0146163852
        },
        "meters": {
            "estimated_diameter_min": 6.5366461618,
            "estimated_diameter_max": 14.6163851626
        },
        "miles": {
            "estimated_diameter_min": 0.0040616824,
            "estimated_diameter_max": 0.0090821979
        },
        "feet": {
            "estimated_diameter_min": 21.4456901934,
            "estimated_diameter_max": 47.9540210969
        }
    },
    "is_potentially_hazardous_asteroid": false,
    "close_approach_data": [
        {
            "close_approach_date": "2020-03-12",
            "close_approach_date_full": "2020-Mar-12 00:31",
            "epoch_date_close_approach": 1583973060000,
            "relative_velocity": {
                "kilometers_per_second": "13.5249205096",
                "kilometers_per_hour": "48689.7138345553",
                "miles_per_hour": "30253.8946879213"
            },
            "miss_distance": {
                "astronomical": "0.0029349743",
                "lunar": "1.1417050027",
                "kilometers": "439065.903784741",
                "miles": "272822.9016457858"
            },
            "orbiting_body": "Earth"
        },
        {
            "close_approach_date": "2020-03-12",
            "close_approach_date_full": "2020-Mar-12 05:56",
            "epoch_date_close_approach": 1583992560000,
            "relative_velocity": {
                "kilometers_per_second": "14.1977420472",
                "kilometers_per_hour": "51111.8713700849",
                "miles_per_hour": "31758.9291854841"
            },
            "miss_distance": {
                "astronomical": "0.0012305912",
                "lunar": "0.4786999768",
                "kilometers": "184093.822360744",
                "miles": "114390.5968525072"
            },
            "orbiting_body": "Moon"
        }
    ],
    "orbital_data": {
        "orbit_id": "1",
        "orbit_determination_date": "2020-03-27 23:42:13",
        "first_observation_date": "2020-03-16",
        "last_observation_date": "2020-03-17",
        "data_arc_in_days": 1,
        "observations_used": 10,
        "orbit_uncertainty": "9",
        "minimum_orbit_intersection": ".00126938",
        "jupiter_tisserand_invariant": "5.350",
        "epoch_osculation": "2458924.5",
        "eccentricity": ".4420899597448987",
        "semi_major_axis": "1.153513794702933",
        "inclination": "6.760913582101939",
        "ascending_node_longitude": "352.3410219846203",
        "orbital_period": "452.5146206181008",
        "perihelion_distance": ".6435569276375283",
        "perihelion_argument": "80.774653058456",
        "aphelion_distance": "1.663470661768338",
        "perihelion_time": "2458860.518764311495",
        "mean_anomaly": "50.90055392331883",
        "mean_motion": ".7955544055311786",
        "equinox": "J2000",
        "orbit_class": {
            "orbit_class_type": "APO",
            "orbit_class_description": "Near-Earth asteroid orbits which cross the Earth’s orbit similar to that of 1862 Apollo",
            "orbit_class_range": "a (semi-major axis) > 1.0 AU; q (perihelion) < 1.017 AU"
        }
    },
    "is_sentry_object": false
}